[{"OBJECT_NAME":"STARLINK-32668","OBJECT_ID":"2024-229W","EPOCH":"2026-01-14T20:13:39.614304","MEAN_MOTION":15.27586243,"ECCENTRICITY":0.0001379,"INCLINATION":42.9983,"RA_OF_ASC_NODE":211.5757,"ARG_OF_PERICENTER":266.9421,"MEAN_ANOMALY":93.1273,"EPHEMERIS_TYPE":0,"CLASSIFICATION_TYPE":"U","NORAD_CAT_ID":62212,"ELEMENT_SET_NO":999,"REV_AT_EPOCH":6236,"BSTAR":0.00031945,"MEAN_MOTION_DOT":8.54e-5,"MEAN_MOTION_DDOT":0},{"OBJECT_NAME":"STARLINK-32669","OBJECT_ID":"2024-229X","EPOCH":"2026-01-14T21:56:22.118496","MEAN_MOTION":15.27589218,"ECCENTRICITY":0.0001279,"INCLINATION":42.9968,"RA_OF_ASC_NODE":214.7006,"ARG_OF_PERICENTER":260.6862,"MEAN_ANOMALY":99.3845,"EPHEMERIS_TYPE":0,"CLASSIFICATION_TYPE":"U","NORAD_CAT_ID":62213,"ELEMENT_SET_NO":999,"REV_AT_EPOCH":6233,"BSTAR":0.00041036,"MEAN_MOTION_DOT":0.0001105,"MEAN_MOTION_DDOT":0},{"OBJECT_NAME":"STARLINK-32666","OBJECT_ID":"2024-229Y","EPOCH":"2026-01-14T14:14:50.793216","MEAN_MOTION":15.27582645,"ECCENTRICITY":9.96e-5,"INCLINATION":42.9988,"RA_OF_ASC_NODE":216.5953,"ARG_OF_PERICENTER":262.3892,"MEAN_ANOMALY":97.6847,"EPHEMERIS_TYPE":0,"CLASSIFICATION_TYPE":"U","NORAD_CAT_ID":62214,"ELEMENT_SET_NO":999,"REV_AT_EPOCH":6228,"BSTAR":0.00036166,"MEAN_MOTION_DOT":9.704e-5,"MEAN_MOTION_DDOT":0},{"OBJECT_NAME":"STARLINK-32662","OBJECT_ID":"2024-229Z","EPOCH":"2026-01-14T21:45:16.068672","MEAN_MOTION":15.27586527,"ECCENTRICITY":0.0001182,"INCLINATION":42.9971,"RA_OF_ASC_NODE":214.643,"ARG_OF_PERICENTER":263.0214,"MEAN_ANOMALY":97.0503,"EPHEMERIS_TYPE":0,"CLASSIFICATION_TYPE":"U","NORAD_CAT_ID":62215,"ELEMENT_SET_NO":999,"REV_AT_EPOCH":6233,"BSTAR":0.00036724,"MEAN_MOTION_DOT":9.859e-5,"MEAN_MOTION_DDOT":0},{"OBJECT_NAME":"STARLINK-11394 [DTC]","OBJECT_ID":"2024-231A","EPOCH":"2026-01-15T03:48:06.326784","MEAN_MOTION":15.69878285,"ECCENTRICITY":0.0003558,"INCLINATION":53.1573,"RA_OF_ASC_NODE":5.1713,"ARG_OF_PERICENTER":158.021,"MEAN_ANOMALY":202.0962,"EPHEMERIS_TYPE":0,"CLASSIFICATION_TYPE":"U","NORAD_CAT_ID":62218,"ELEMENT_SET_NO":999,"REV_AT_EPOCH":6500,"BSTAR":0.001437,"MEAN_MOTION_DOT":0.00178569,"MEAN_MOTION_DDOT":0},{"OBJECT_NAME":"STARLINK-11490 [DTC]","OBJECT_ID":"2024-231B","EPOCH":"2026-01-15T03:55:11.202240","MEAN_MOTION":15.69758937,"ECCENTRICITY":0.0001195,"INCLINATION":53.1578,"RA_OF_ASC_NODE":5.2015,"ARG_OF_PERICENTER":48.3754,"MEAN_ANOMALY":311.7366,"EPHEMERIS_TYPE":0,"CLASSIFICATION_TYPE":"U","NORAD_CAT_ID":62219,"ELEMENT_SET_NO":999,"REV_AT_EPOCH":6500,"BSTAR":0.0013669,"MEAN_MOTION_DOT":0.00168762,"MEAN_MOTION_DDOT":0},{"OBJECT_NAME":"STARLINK-11466 [DTC]","OBJECT_ID":"2024-231C","EPOCH":"2026-01-15T04:09:18.629856","MEAN_MOTION":15.69845552,"ECCENTRICITY":6.95e-5,"INCLINATION":53.1565,"RA_OF_ASC_NODE":5.2658,"ARG_OF_PERICENTER":123.9642,"MEAN_ANOMALY":236.1442,"EPHEMERIS_TYPE":0,"CLASSIFICATION_TYPE":"U","NORAD_CAT_ID":62220,"ELEMENT_SET_NO":999,"REV_AT_EPOCH":6500,"BSTAR":0.0012001,"MEAN_MOTION_DOT":0.00148257,"MEAN_MOTION_DDOT":0},{"OBJECT_NAME":"STARLINK-11468 [DTC]","OBJECT_ID":"2024-231D","EPOCH":"2026-01-15T04:23:26.258784","MEAN_MOTION":15.69757727,"ECCENTRICITY":0.0001549,"INCLINATION":53.1578,"RA_OF_ASC_NODE":5.3311,"ARG_OF_PERICENTER":102.9623,"MEAN_ANOMALY":257.1568,"EPHEMERIS_TYPE":0,"CLASSIFICATION_TYPE":"U","NORAD_CAT_ID":62221,"ELEMENT_SET_NO":999,"REV_AT_EPOCH":6500,"BSTAR":0.00067475,"MEAN_MOTION_DOT":0.00082133,"MEAN_MOTION_DDOT":0},{"OBJECT_NAME":"STARLINK-11488 [DTC]","OBJECT_ID":"2024-231E","EPOCH":"2026-01-15T04:02:15.000288","MEAN_MOTION":15.69755985,"ECCENTRICITY":9.88e-5,"INCLINATION":53.1573,"RA_OF_ASC_NODE":5.232,"ARG_OF_PERICENTER":100.7964,"MEAN_ANOMALY":259.3165,"EPHEMERIS_TYPE":0,"CLASSIFICATION_TYPE":"U","NORAD_CAT_ID":62222,"ELEMENT_SET_NO":999,"REV_AT_EPOCH":6500,"BSTAR":0.0014215,"MEAN_MOTION_DOT":0.00175654,"MEAN_MOTION_DDOT":0},{"OBJECT_NAME":"STARLINK-11483 [DTC]","OBJECT_ID":"2024-231F","EPOCH":"2026-01-15T03:12:48.160800","MEAN_MOTION":15.69743955,"ECCENTRICITY":0.0001267,"INCLINATION":53.1577,"RA_OF_ASC_NODE":5.0051,"ARG_OF_PERICENTER":83.7496,"MEAN_ANOMALY":276.3667,"EPHEMERIS_TYPE":0,"CLASSIFICATION_TYPE":"U","NORAD_CAT_ID":62223,"ELEMENT_SET_NO":999,"REV_AT_EPOCH":6500,"BSTAR":0.0013371,"MEAN_MOTION_DOT":0.00164883,"MEAN_MOTION_DDOT":0},{"OBJECT_NAME":"STARLINK-11492 [DTC]","OBJECT_ID":"2024-231G","EPOCH":"2026-01-15T04:16:22.647360","MEAN_MOTION":15.697431,"ECCENTRICITY":0.0001022,"INCLINATION":53.1568,"RA_OF_ASC_NODE":5.3091,"ARG_OF_PERICENTER":75.3021,"MEAN_ANOMALY":284.811,"EPHEMERIS_TYPE":0,"CLASSIFICATION_TYPE":"U","NORAD_CAT_ID":62224,"ELEMENT_SET_NO":999,"REV_AT_EPOCH":6500,"BSTAR":0.0007313,"MEAN_MOTION_DOT":0.00089086,"MEAN_MOTION_DDOT":0},{"OBJECT_NAME":"STARLINK-11471 [DTC]","OBJECT_ID":"2024-231H","EPOCH":"2026-01-15T03:19:52.158432","MEAN_MOTION":15.69773324,"ECCENTRICITY":0.0001362,"INCLINATION":53.1573,"RA_OF_ASC_NODE":5.0493,"ARG_OF_PERICENTER":67.2552,"MEAN_ANOMALY":292.8609,"EPHEMERIS_TYPE":0,"CLASSIFICATION_TYPE":"U","NORAD_CAT_ID":62225,"ELEMENT_SET_NO":999,"REV_AT_EPOCH":6500,"BSTAR":0.0015006,"MEAN_MOTION_DOT":0.00185821,"MEAN_MOTION_DDOT":0},{"OBJECT_NAME":"STARLINK-11475 [DTC]","OBJECT_ID":"2024-231J","EPOCH":"2026-01-15T03:26:55.857120","MEAN_MOTION":15.69788237,"ECCENTRICITY":0.0001572,"INCLINATION":53.1574,"RA_OF_ASC_NODE":5.0686,"ARG_OF_PERICENTER":130.6184,"MEAN_ANOMALY":229.497,"EPHEMERIS_TYPE":0,"CLASSIFICATION_TYPE":"U","NORAD_CAT_ID":62226,"ELEMENT_SET_NO":999,"REV_AT_EPOCH":6500,"BSTAR":0.0015639,"MEAN_MOTION_DOT":0.00194001,"MEAN_MOTION_DDOT":0},{"OBJECT_NAME":"STARLINK-11469 [DTC]","OBJECT_ID":"2024-231K","EPOCH":"2026-01-15T03:41:03.413472","MEAN_MOTION":15.69760263,"ECCENTRICITY":9.59e-5,"INCLINATION":53.1574,"RA_OF_ASC_NODE":5.1323,"ARG_OF_PERICENTER":33.8052,"MEAN_ANOMALY":326.3026,"EPHEMERIS_TYPE":0,"CLASSIFICATION_TYPE":"U","NORAD_CAT_ID":62227,"ELEMENT_SET_NO":999,"REV_AT_EPOCH":6500,"BSTAR":0.00092325,"MEAN_MOTION_DOT":0.00113032,"MEAN_MOTION_DDOT":0},{"OBJECT_NAME":"STARLINK-11476 [DTC]","OBJECT_ID":"2024-231L","EPOCH":"2026-01-15T04:37:25.347072","MEAN_MOTION":15.69758288,"ECCENTRICITY":0.0001578,"INCLINATION":53.1578,"RA_OF_ASC_NODE":4.6568,"ARG_OF_PERICENTER":108.1274,"MEAN_ANOMALY":251.9916,"EPHEMERIS_TYPE":0,"CLASSIFICATION_TYPE":"U","NORAD_CAT_ID":62228,"ELEMENT_SET_NO":999,"REV_AT_EPOCH":6502,"BSTAR":0.00096113,"MEAN_MOTION_DOT":0.00117754,"MEAN_MOTION_DDOT":0},{"OBJECT_NAME":"STARLINK-11485 [DTC]","OBJECT_ID":"2024-231M","EPOCH":"2026-01-15T03:33:59.427936","MEAN_MOTION":15.69756786,"ECCENTRICITY":2.13e-5,"INCLINATION":53.157,"RA_OF_ASC_NODE":5.0989,"ARG_OF_PERICENTER":103.9628,"MEAN_ANOMALY":256.1413,"EPHEMERIS_TYPE":0,"CLASSIFICATION_TYPE":"U","NORAD_CAT_ID":62229,"ELEMENT_SET_NO":999,"REV_AT_EPOCH":6500,"BSTAR":0.00096045,"MEAN_MOTION_DOT":0.00117662,"MEAN_MOTION_DDOT":0}]
