STARLINK-32668          
1 62212U 24229W   26014.84281961  .00008540  00000+0  31945-3 0  9995
2 62212  42.9983 211.5757 0001379 266.9421  93.1273 15.27586243 62363
STARLINK-32669          
1 62213U 24229X   26014.91414489  .00011050  00000+0  41036-3 0  9999
2 62213  42.9968 214.7006 0001279 260.6862  99.3845 15.27589218 62333
STARLINK-32666          
1 62214U 24229Y   26014.59364344  .00009704  00000+0  36166-3 0  9999
2 62214  42.9988 216.5953 0000996 262.3892  97.6847 15.27582645 62288
STARLINK-32662          
1 62215U 24229Z   26014.90643598  .00009859  00000+0  36724-3 0  9997
2 62215  42.9971 214.6430 0001182 263.0214  97.0503 15.27586527 62336
STARLINK-11394 [DTC]    
1 62218U 24231A   26015.15840656  .00178569  00000+0  14370-2 0  9992
2 62218  53.1573   5.1713 0003558 158.0210 202.0962 15.69878285 65001
STARLINK-11490 [DTC]    
1 62219U 24231B   26015.16332410  .00168762  00000+0  13669-2 0  9992
2 62219  53.1578   5.2015 0001195  48.3754 311.7366 15.69758937 65009
STARLINK-11466 [DTC]    
1 62220U 24231C   26015.17313229  .00148257  00000+0  12001-2 0  9998
2 62220  53.1565   5.2658 0000695 123.9642 236.1442 15.69845552 65005
STARLINK-11468 [DTC]    
1 62221U 24231D   26015.18294281  .00082133  00000+0  67475-3 0  9992
2 62221  53.1578   5.3311 0001549 102.9623 257.1568 15.69757727 65000
STARLINK-11488 [DTC]    
1 62222U 24231E   26015.16822917  .00175654  00000+0  14215-2 0  9998
2 62222  53.1573   5.2320 0000988 100.7964 259.3165 15.69755985 65006
STARLINK-11483 [DTC]    
1 62223U 24231F   26015.13389075  .00164883  00000+0  13371-2 0  9993
2 62223  53.1577   5.0051 0001267  83.7496 276.3667 15.69743955 65001
STARLINK-11492 [DTC]    
1 62224U 24231G   26015.17803990  .00089086  00000+0  73130-3 0  9996
2 62224  53.1568   5.3091 0001022  75.3021 284.8110 15.69743100 65008
STARLINK-11471 [DTC]    
1 62225U 24231H   26015.13879813  .00185821  00000+0  15006-2 0  9991
2 62225  53.1573   5.0493 0001362  67.2552 292.8609 15.69773324 65007
STARLINK-11475 [DTC]    
1 62226U 24231J   26015.14370205  .00194001  00000+0  15639-2 0  9996
2 62226  53.1574   5.0686 0001572 130.6184 229.4970 15.69788237 65008
STARLINK-11469 [DTC]    
1 62227U 24231K   26015.15351173  .00113032  00000+0  92325-3 0  9994
2 62227  53.1574   5.1323 0000959  33.8052 326.3026 15.69760263 65002
STARLINK-11476 [DTC]    
1 62228U 24231L   26015.19265448  .00117754  00000+0  96113-3 0  9992
2 62228  53.1578   4.6568 0001578 108.1274 251.9916 15.69758288 65029
STARLINK-11485 [DTC]    
1 62229U 24231M   26015.14860449  .00117662  00000+0  96045-3 0  9992
2 62229  53.1570   5.0989 0000213 103.9628 256.1413 15.69756786 65003
